 2024  623 0358  0.4 L  10.615 -62.442 90.7  FUN 10 0.2 5.5WFUN                1
 SPEC AVERAGE  MO 17.4 ST999.9 OM  5.5 f0 5.45 R0.4075 AL 5.19 WI 45.1 MW  5.5 3
 SPEC SD       MO  0.1 ST0.000 OM  0.3 f0 4.32 R0.2319 AL      WI      MW  0.1 3
 GAP=171        0.62       3.5     1.7  2.6 -0.4398E+01  0.1682E+01 -0.1755E+01E
 SPEC XYAGHH N MO 17.2 ST999.9 OM  5.9 f0 3.85 R0.3748 AL 2.59 WI 27.7 MW  5.4 3
 SPEC XYAGHH N T 35823 K 0.020 GD  100 VS 3.90 DE 2.90 Q0 81.0 QA 1.10 Q1 1.00 3
 SPEC XCARHH E MO 17.5 ST999.9 OM  6.1 f0 1.61 R0.8963 AL 3.08 WI 40.1 MW  5.6 3
 SPEC XCARHH E T 35835 K 0.020 GD  151 VS 3.90 DE 2.90 Q0 81.0 QA 1.10 Q1 1.00 3
 SPEC TERVHH E MO 17.3 ST999.9 OM  5.2 f0 6.14 R0.2350 AL 2.72 WI 46.2 MW  5.5 3
 SPEC TERVHH E T 4 043 K 0.020 GD  748 VS 3.90 DE 2.90 Q0 81.0 QA 1.10 Q1 1.00 3
 SPEC TACVHH N MO 17.4 ST999.9 OM  5.4 f0 2.85 R0.5063 AL 2.19 WI 52.8 MW  5.5 3
 SPEC TACVHH N T 35952 K 0.020 GD  513 VS 3.90 DE 2.90 Q0 81.0 QA 1.10 Q1 1.00 3
 SPEC SDV BH 2 MO 17.3 ST999.9 OM  5.1 f0 16.5 R0.0875 AL20.24 WI 50.6 MW  5.5 3
 SPEC SDV BH 2 T 4 118 K 0.020 GD  923 VS 3.90 DE 2.90 Q0 81.0 QA 1.10 Q1 1.00 3
 SPEC BBGHBH 2 MO 17.4 ST999.9 OM  5.5 f0 2.65 R0.5445 AL 4.59 WI 64.7 MW  5.5 3
 SPEC BBGHBH 2 T 35935 K 0.020 GD  429 VS 3.90 DE 2.90 Q0 81.0 QA 1.10 Q1 1.00 3
 SPEC GRGRBH 2 MO 17.5 ST999.9 OM  5.9 f0 5.00 R0.2886 AL 4.69 WI 27.7 MW  5.6 3
 SPEC GRGRBH 2 T 35848 K 0.020 GD  209 VS 3.90 DE 2.90 Q0 81.0 QA 1.10 Q1 1.00 3
 SPEC FUNVHH N MO 17.4 ST999.9 OM  5.5 f0 2.63 R0.5487 AL 2.70 WI 34.8 MW  5.6 3
 SPEC FUNVHH N T 35948 K 0.020 GD  486 VS 3.90 DE 2.90 Q0 81.0 QA 1.10 Q1 1.00 3
 SPEC BENVHH N MO 17.3 ST999.9 OM  5.3 f0 7.78 R0.1855 AL 3.91 WI 61.2 MW  5.5 3
 SPEC BENVHH N T 4 0 7 K 0.020 GD  576 VS 3.90 DE 2.90 Q0 81.0 QA 1.10 Q1 1.00 3
 ACTION:SPL 24-07-02 17:28 OP:leo  STATUS:               ID:20240623035600     I
 OLDACT:UP  24-06-23 00:59 OP:cf   STATUS:               ID:20240623035600     3
 OLDACT:UP  24-06-23 00:58 OP:cf   STATUS:               ID:20240623035600     3
 OLDACT:UP  24-06-23 00:46 OP:cf   STATUS:               ID:20240623035600     3
 OLDACT:UP  24-06-23 00:38 OP:cf   STATUS:               ID:20240623035600     3
 OLDACT:UP  24-06-23 00:11 OP:ll   STATUS:               ID:20240623035600     3
 OLDACT:UP  24-06-23 00:10 OP:ll   STATUS:               ID:20240623035600     3
 OLDACT:UP  24-06-23 00:08 OP:ll   STATUS:               ID:20240623035600     3
 OLDACT:REG 24-06-23 00:08 OP:ll   STATUS:               ID:20240623035600     3
 2024-06-23-0356-00S.MAN___080                                                 6
 STAT SP IPHASW D HRMM SECON CODA AMPLIT PERI AZIMU VELO AIN AR TRES W  DIS CAZ7
 TRN  BE ES        358 34.74                             123    0.2210  114  88 
 XCAR HZ EP        358 20.75                             121    0.0710  121 264 
 XCAR HE ES        358 35.98                             121    0.2610  121 264 
 GRGR BZ EP        358 27.86                             110   -0.2810  189  27 
 GRGR B2 ES        358 48.87                             110    0.1810  189  27 
 BBGH B2 ES        359 36.12                              98    0.1510  420  48 
 FUNV HZ EP        359  2.66                              97    0.2910  478 268 
 FUNV HN ES        359 48.28                              97    0.0310  478 268 
 TACV HZ EP        359  5.52                              97    0.0310  505 264 
 TACV HN ES        359 53.69                              97    0.0110  505 264 
 BENV HZ EP        359 12.99                              96   -0.2510  569 263 
 BENV HN ES        4 0  7.35                              96    0.1810  569 263 
 TERV HZ EP        359 33.78                              78    0.0910  743 265 
 TERV HE ES        4 0 42.96                              78    0.2110  743 265 
 SDV  BZ EP        359 54.29                              78   -0.2510  919 259 
 SDV  B2 ES        4 1 18.84                              78   -0.1810  919 259 
 BBGH BZ EP        358 54.92                              98   -0.3910  420  48 
 XYAG HZ EP        358 13.68                             152   -0.3610 42.4 263 
 XYAG HN ES        358 23.93                             152   -0.2310 42.4 263 
 TRN  BZ EP        358 20.22                             123    0.2310  114  88 
                                                                                
